CCSDS_OMM_VERS = 2.0
CREATION_DATE  = 
ORIGINATOR     = 

OBJECT_NAME    = STARLINK-34840
OBJECT_ID      = 2025-257AC
CENTER_NAME    = EARTH
REF_FRAME      = TEME
TIME_SYSTEM    = UTC
MEAN_ELEMENT_THEORY = SGP/SGP4

EPOCH          = 2025-12-08T13:34:41.658816
MEAN_MOTION    = 15.49353814
ECCENTRICITY   = .00004215
INCLINATION    = 53.1588
RA_OF_ASC_NODE = 283.7070
ARG_OF_PERICENTER = 123.5038
MEAN_ANOMALY   = 236.6011

EPHEMERIS_TYPE = 0
CLASSIFICATION_TYPE = U
NORAD_CAT_ID   = 66406
ELEMENT_SET_NO = 999
REV_AT_EPOCH   = 567
BSTAR          = .19441938E-2
MEAN_MOTION_DOT = .109379E-2
MEAN_MOTION_DDOT = 0

CCSDS_OMM_VERS = 2.0
CREATION_DATE  = 
ORIGINATOR     = 

OBJECT_NAME    = STARLINK-35686
OBJECT_ID      = 2025-257AD
CENTER_NAME    = EARTH
REF_FRAME      = TEME
TIME_SYSTEM    = UTC
MEAN_ELEMENT_THEORY = SGP/SGP4

EPOCH          = 2025-12-08T14:00:01.999872
MEAN_MOTION    = 15.48843430
ECCENTRICITY   = .0001076
INCLINATION    = 53.1593
RA_OF_ASC_NODE = 283.6304
ARG_OF_PERICENTER = 68.4877
MEAN_ANOMALY   = 25.8702

EPHEMERIS_TYPE = 0
CLASSIFICATION_TYPE = U
NORAD_CAT_ID   = 66407
ELEMENT_SET_NO = 999
REV_AT_EPOCH   = 582
BSTAR          = -.43002352E-1
MEAN_MOTION_DOT = -.2090036E-1
MEAN_MOTION_DDOT = 0

CCSDS_OMM_VERS = 2.0
CREATION_DATE  = 
ORIGINATOR     = 

OBJECT_NAME    = STARLINK-35679
OBJECT_ID      = 2025-257AE
CENTER_NAME    = EARTH
REF_FRAME      = TEME
TIME_SYSTEM    = UTC
MEAN_ELEMENT_THEORY = SGP/SGP4

EPOCH          = 2025-12-08T08:57:08.502048
MEAN_MOTION    = 15.47234722
ECCENTRICITY   = .00086151
INCLINATION    = 53.1603
RA_OF_ASC_NODE = 284.6380
ARG_OF_PERICENTER = 114.4930
MEAN_ANOMALY   = 245.6977

EPHEMERIS_TYPE = 0
CLASSIFICATION_TYPE = U
NORAD_CAT_ID   = 66408
ELEMENT_SET_NO = 999
REV_AT_EPOCH   = 570
BSTAR          = -.8237837E-2
MEAN_MOTION_DOT = -.40599E-2
MEAN_MOTION_DDOT = 0

CCSDS_OMM_VERS = 2.0
CREATION_DATE  = 
ORIGINATOR     = 

OBJECT_NAME    = CHUTIAN-2 A
OBJECT_ID      = 2025-256A
CENTER_NAME    = EARTH
REF_FRAME      = TEME
TIME_SYSTEM    = UTC
MEAN_ELEMENT_THEORY = SGP/SGP4

EPOCH          = 2025-12-08T14:02:37.082688
MEAN_MOTION    = 14.49934466
ECCENTRICITY   = .00134928
INCLINATION    = 98.2776
RA_OF_ASC_NODE = 47.4197
ARG_OF_PERICENTER = 190.2906
MEAN_ANOMALY   = 169.8014

EPHEMERIS_TYPE = 0
CLASSIFICATION_TYPE = U
NORAD_CAT_ID   = 66409
ELEMENT_SET_NO = 999
REV_AT_EPOCH   = 427
BSTAR          = .36179947E-3
MEAN_MOTION_DOT = .1357E-4
MEAN_MOTION_DDOT = 0

CCSDS_OMM_VERS = 2.0
CREATION_DATE  = 
ORIGINATOR     = 

OBJECT_NAME    = CHUTIAN-2 B
OBJECT_ID      = 2025-256B
CENTER_NAME    = EARTH
REF_FRAME      = TEME
TIME_SYSTEM    = UTC
MEAN_ELEMENT_THEORY = SGP/SGP4

EPOCH          = 2025-12-08T12:01:02.397216
MEAN_MOTION    = 14.50918128
ECCENTRICITY   = .00136961
INCLINATION    = 98.2797
RA_OF_ASC_NODE = 47.3789
ARG_OF_PERICENTER = 193.7504
MEAN_ANOMALY   = 166.3320

EPHEMERIS_TYPE = 0
CLASSIFICATION_TYPE = U
NORAD_CAT_ID   = 66410
ELEMENT_SET_NO = 999
REV_AT_EPOCH   = 426
BSTAR          = .34704134E-3
MEAN_MOTION_DOT = .1327E-4
MEAN_MOTION_DDOT = 0

CCSDS_OMM_VERS = 2.0
CREATION_DATE  = 
ORIGINATOR     = 

OBJECT_NAME    = ZK-1A R/B
OBJECT_ID      = 2025-256C
CENTER_NAME    = EARTH
REF_FRAME      = TEME
TIME_SYSTEM    = UTC
MEAN_ELEMENT_THEORY = SGP/SGP4

EPOCH          = 2025-12-08T10:48:21.677760
MEAN_MOTION    = 15.01831199
ECCENTRICITY   = .02287507
INCLINATION    = 98.3227
RA_OF_ASC_NODE = 49.9222
ARG_OF_PERICENTER = 259.2997
MEAN_ANOMALY   = 98.2396

EPHEMERIS_TYPE = 0
CLASSIFICATION_TYPE = U
NORAD_CAT_ID   = 66411
ELEMENT_SET_NO = 999
REV_AT_EPOCH   = 440
BSTAR          = .7754817E-3
MEAN_MOTION_DOT = .17849E-3
MEAN_MOTION_DDOT = 0

CCSDS_OMM_VERS = 2.0
CREATION_DATE  = 
ORIGINATOR     = 

OBJECT_NAME    = HULIANWANG DIGUI 13A
OBJECT_ID      = 2025-258A
CENTER_NAME    = EARTH
REF_FRAME      = TEME
TIME_SYSTEM    = UTC
MEAN_ELEMENT_THEORY = SGP/SGP4

EPOCH          = 2025-12-08T08:38:10.619232
MEAN_MOTION    = 14.20432847
ECCENTRICITY   = .00076585
INCLINATION    = 50.0042
RA_OF_ASC_NODE = 280.4566
ARG_OF_PERICENTER = 343.0746
MEAN_ANOMALY   = 16.9909

EPHEMERIS_TYPE = 0
CLASSIFICATION_TYPE = U
NORAD_CAT_ID   = 66412
ELEMENT_SET_NO = 999
REV_AT_EPOCH   = 403
BSTAR          = .33138446E-3
MEAN_MOTION_DOT = .557E-5
MEAN_MOTION_DDOT = 0

CCSDS_OMM_VERS = 2.0
CREATION_DATE  = 
ORIGINATOR     = 

OBJECT_NAME    = HULIANWANG DIGUI 13B
OBJECT_ID      = 2025-258B
CENTER_NAME    = EARTH
REF_FRAME      = TEME
TIME_SYSTEM    = UTC
MEAN_ELEMENT_THEORY = SGP/SGP4

EPOCH          = 2025-12-08T13:55:26.220576
MEAN_MOTION    = 14.19797153
ECCENTRICITY   = .00071183
INCLINATION    = 49.9984
RA_OF_ASC_NODE = 279.6068
ARG_OF_PERICENTER = 354.2773
MEAN_ANOMALY   = 5.8056

EPHEMERIS_TYPE = 0
CLASSIFICATION_TYPE = U
NORAD_CAT_ID   = 66413
ELEMENT_SET_NO = 999
REV_AT_EPOCH   = 406
BSTAR          = .49733401E-3
MEAN_MOTION_DOT = .903E-5
MEAN_MOTION_DDOT = 0

CCSDS_OMM_VERS = 2.0
CREATION_DATE  = 
ORIGINATOR     = 

OBJECT_NAME    = HULIANWANG DIGUI 13C
OBJECT_ID      = 2025-258C
CENTER_NAME    = EARTH
REF_FRAME      = TEME
TIME_SYSTEM    = UTC
MEAN_ELEMENT_THEORY = SGP/SGP4

EPOCH          = 2025-12-08T13:50:17.110752
MEAN_MOTION    = 14.19947362
ECCENTRICITY   = .00070001
INCLINATION    = 50.0042
RA_OF_ASC_NODE = 279.6063
ARG_OF_PERICENTER = 343.3386
MEAN_ANOMALY   = 16.7294

EPHEMERIS_TYPE = 0
CLASSIFICATION_TYPE = U
NORAD_CAT_ID   = 66414
ELEMENT_SET_NO = 999
REV_AT_EPOCH   = 406
BSTAR          = .48116814E-3
MEAN_MOTION_DOT = .871E-5
MEAN_MOTION_DDOT = 0

CCSDS_OMM_VERS = 2.0
CREATION_DATE  = 
ORIGINATOR     = 

OBJECT_NAME    = HULIANWANG DIGUI 13D
OBJECT_ID      = 2025-258D
CENTER_NAME    = EARTH
REF_FRAME      = TEME
TIME_SYSTEM    = UTC
MEAN_ELEMENT_THEORY = SGP/SGP4

EPOCH          = 2025-12-08T08:35:29.309568
MEAN_MOTION    = 14.20669727
ECCENTRICITY   = .00072244
INCLINATION    = 50.0037
RA_OF_ASC_NODE = 280.4475
ARG_OF_PERICENTER = 349.9452
MEAN_ANOMALY   = 10.1314

EPHEMERIS_TYPE = 0
CLASSIFICATION_TYPE = U
NORAD_CAT_ID   = 66415
ELEMENT_SET_NO = 999
REV_AT_EPOCH   = 403
BSTAR          = .31612211E-3
MEAN_MOTION_DOT = .527E-5
MEAN_MOTION_DDOT = 0

CCSDS_OMM_VERS = 2.0
CREATION_DATE  = 
ORIGINATOR     = 

OBJECT_NAME    = HULIANWANG DIGUI 13E
OBJECT_ID      = 2025-258E
CENTER_NAME    = EARTH
REF_FRAME      = TEME
TIME_SYSTEM    = UTC
MEAN_ELEMENT_THEORY = SGP/SGP4

EPOCH          = 2025-12-08T08:43:20.952480
MEAN_MOTION    = 14.20131727
ECCENTRICITY   = .00059242
INCLINATION    = 50.0052
RA_OF_ASC_NODE = 280.4795
ARG_OF_PERICENTER = 347.9368
MEAN_ANOMALY   = 12.1400

EPHEMERIS_TYPE = 0
CLASSIFICATION_TYPE = U
NORAD_CAT_ID   = 66416
ELEMENT_SET_NO = 999
REV_AT_EPOCH   = 403
BSTAR          = .40678029E-3
MEAN_MOTION_DOT = .715E-5
MEAN_MOTION_DDOT = 0

CCSDS_OMM_VERS = 2.0
CREATION_DATE  = 
ORIGINATOR     = 

OBJECT_NAME    = HULIANWANG DIGUI 13F
OBJECT_ID      = 2025-258F
CENTER_NAME    = EARTH
REF_FRAME      = TEME
TIME_SYSTEM    = UTC
MEAN_ELEMENT_THEORY = SGP/SGP4

EPOCH          = 2025-12-08T13:44:44.329056
MEAN_MOTION    = 14.20307849
ECCENTRICITY   = .00056434
INCLINATION    = 49.9999
RA_OF_ASC_NODE = 279.5633
ARG_OF_PERICENTER = 346.8249
MEAN_ANOMALY   = 13.2514

EPHEMERIS_TYPE = 0
CLASSIFICATION_TYPE = U
NORAD_CAT_ID   = 66417
ELEMENT_SET_NO = 999
REV_AT_EPOCH   = 406
BSTAR          = .35158092E-3
MEAN_MOTION_DOT = .599E-5
MEAN_MOTION_DDOT = 0

CCSDS_OMM_VERS = 2.0
CREATION_DATE  = 
ORIGINATOR     = 

OBJECT_NAME    = HULIANWANG DIGUI 13G
OBJECT_ID      = 2025-258G
CENTER_NAME    = EARTH
REF_FRAME      = TEME
TIME_SYSTEM    = UTC
MEAN_ELEMENT_THEORY = SGP/SGP4

EPOCH          = 2025-12-08T13:36:58.304736
MEAN_MOTION    = 14.20782766
ECCENTRICITY   = .00059872
INCLINATION    = 49.9993
RA_OF_ASC_NODE = 279.5380
ARG_OF_PERICENTER = 346.7253
MEAN_ANOMALY   = 13.3500

EPHEMERIS_TYPE = 0
CLASSIFICATION_TYPE = U
NORAD_CAT_ID   = 66418
ELEMENT_SET_NO = 999
REV_AT_EPOCH   = 406
BSTAR          = .30017826E-3
MEAN_MOTION_DOT = .494E-5
MEAN_MOTION_DDOT = 0

CCSDS_OMM_VERS = 2.0
CREATION_DATE  = 
ORIGINATOR     = 

OBJECT_NAME    = HULIANWANG DIGUI 13H
OBJECT_ID      = 2025-258H
CENTER_NAME    = EARTH
REF_FRAME      = TEME
TIME_SYSTEM    = UTC
MEAN_ELEMENT_THEORY = SGP/SGP4

EPOCH          = 2025-12-08T10:11:43.764576
MEAN_MOTION    = 14.20896780
ECCENTRICITY   = .00052731
INCLINATION    = 50.0007
RA_OF_ASC_NODE = 280.1123
ARG_OF_PERICENTER = 342.4085
MEAN_ANOMALY   = 17.6643

EPHEMERIS_TYPE = 0
CLASSIFICATION_TYPE = U
NORAD_CAT_ID   = 66419
ELEMENT_SET_NO = 999
REV_AT_EPOCH   = 404
BSTAR          = .28195579E-3
MEAN_MOTION_DOT = .456E-5
MEAN_MOTION_DDOT = 0

CCSDS_OMM_VERS = 2.0
CREATION_DATE  = 
ORIGINATOR     = 

OBJECT_NAME    = HULIANWANG DIGUI 13J
OBJECT_ID      = 2025-258J
CENTER_NAME    = EARTH
REF_FRAME      = TEME
TIME_SYSTEM    = UTC
MEAN_ELEMENT_THEORY = SGP/SGP4

EPOCH          = 2025-12-08T08:28:13.755936
MEAN_MOTION    = 14.21069190
ECCENTRICITY   = .00048643
INCLINATION    = 50.0024
RA_OF_ASC_NODE = 280.4093
ARG_OF_PERICENTER = 350.6291
MEAN_ANOMALY   = 9.4529

EPHEMERIS_TYPE = 0
CLASSIFICATION_TYPE = U
NORAD_CAT_ID   = 66420
ELEMENT_SET_NO = 999
REV_AT_EPOCH   = 402
BSTAR          = .28046556E-3
MEAN_MOTION_DOT = .454E-5
MEAN_MOTION_DDOT = 0

